#aV2012 12 18  0  0  0.00000000     288 DD+AD WGS84 FIT  NGA
## 1719 172800.00000000   300.00000000 56279 0.0000000000000
+   31     1  2  3  4  5  6  7  8  9 10 11 12 13 14 15 16 17
+         18 19 20 21 22 23 24 25 26 28 29 30 31 32  0  0  0
+          0  0  0  0  0  0  0  0  0  0  0  0  0  0  0  0  0
+          0  0  0  0  0  0  0  0  0  0  0  0  0  0  0  0  0
+          0  0  0  0  0  0  0  0  0  0  0  0  0  0  0  0  0
++         2  2  2  2  2  2  2  2  2  2  2  2  2  2  2  2  2
++         2  2  2  2  2  2  2  2  2  2  2  2  2  2  2  0  0
++         0  0  0  0  0  0  0  0  0  0  0  0  0  0  0  0  0
++         0  0  0  0  0  0  0  0  0  0  0  0  0  0  0  0  0
++         0  0  0  0  0  0  0  0  0  0  0  0  0  0  0  0  0
%c cc cc ccc ccc cccc cccc cccc cccc ccccc ccccc ccccc ccccc
%c cc cc ccc ccc cccc cccc cccc cccc ccccc ccccc ccccc ccccc
%f  0.0000000  0.000000000  0.00000000000  0.000000000000000
%f  0.0000000  0.000000000  0.00000000000  0.000000000000000
%i    0    0    0    0      0      0      0      0         0
%i    0    0    0    0      0      0      0      0         0
/*      NGA, ST. LOUIS,MO.                                  
/*   EPHEMERIS COMPUTED FROM  1 DAYS OF DATA
/*   EPOCHA SMOOTHER  
/* CCCCCCCCCCCCCCCCCCCCCCCCCCCCCCCCCCCCCCCCCCCCCCCCCCCCCCCCC
*  2012 12 18 22 10  0.00000000                                                 
P  1 -13984.230937  19230.724030  11747.468650    288.255972                    
V  1   1710.023055 -15081.964284  26731.008697      0.020895                    
P  2  15465.871011   2467.875208 -21262.512274    411.986081                    
V  2  -6552.525930  26715.091678  -2164.223146      0.009978                    
P  3 -22551.386797  -5826.108198  12478.453232    143.405472                    
V  3 -11303.612107 -12530.426004 -25039.644644      0.050125                    
P  4   9134.610810  17128.144670 -18279.927033     79.133997                    
V  4  -8074.505386  21451.577167  16608.034198      0.111172                    
P  5  25876.309954  -2166.638100  -5975.091880   -373.582971                    
V  5  -6574.762571   4692.544611 -30186.100101     -0.022504                    
P  6 -22392.662933 -11715.934261   8796.667550    419.684159                    
V  6  -6163.512994  -9524.742850 -28361.482784     -0.131967                    
P  7  -6025.049212  25595.149539   2452.137523    158.642852                    
V  7  -3357.430358   2203.754117 -32067.506385      0.044206                    
P  8    932.400756  22199.753535  14181.813574      3.557599                    
V  8  -8220.231187  16107.861381 -25416.155692      0.002337                    
P  9  15470.289378 -11129.379486  17969.091504    207.573716                    
V  9  -5110.107359  23353.361312  18267.458161      0.027899                    
P 10  15112.851064  10873.850440 -19370.782701    -62.729543                    
V 10 -23023.265448   6616.029016 -14046.225161     -0.014777                    
P 11 -13749.128357  14327.395237  17087.475167   -334.606832                    
V 11  -3257.419231 -22890.578534  16461.715389     -0.038615                    
P 12  21522.561189 -11662.992490 -10074.142844    107.597273                    
V 12  12938.959010   -781.488281  28785.927939      0.020316                    
P 13  -1157.327642  18705.424164 -18908.713364    159.161737                    
V 13 -15673.564965 -17826.660928 -16902.801607     -0.028689                    
P 14 -13848.671886 -22124.452762   5504.335029    218.448587                    
V 14   5935.498511   3753.421923  30993.315978      0.005230                    
P 15  16821.597917  -4049.571897  20198.589456   -102.590270                    
V 15  17634.828944  18694.691802 -10686.179252     -0.010745                    
P 16 -25938.729157    912.757187  -6398.344989   -250.956104                    
V 16   7517.729068  -3316.265964 -30664.469801     -0.004192                    
P 17  15195.826284  21525.706148   4477.633938     68.126303                    
V 17  -5409.939500  -2398.072083  31004.993480     -0.036667                    
P 18   2100.500943 -16649.096314  20912.202084    230.057273                    
V 18  25361.802484  -5262.201565  -7217.822506      0.018398                    
P 19 -17901.334362   -311.774466  19669.359884   -332.116872                    
V 19 -14953.849932 -20081.352597 -13476.764121     -0.033528                    
P 20 -19840.991987  14262.154065 -10487.345660     76.912455                    
V 20 -13564.653103    643.569975  27053.486457      0.012864                    
P 21   2219.122779 -25472.858481   6543.044949   -269.169076                    
V 21   5952.161786  -6419.787973 -29920.478309     -0.023653                    
P 22 -12025.664177 -12700.184697  20203.127120    153.666087                    
V 22  24348.753002  -7162.537218   9951.698966      0.006383                    
P 23 -10957.622820  10602.748877 -21686.056800    132.720743                    
V 23 -19179.797785 -19973.607614   -448.724386     -0.038192                    
P 24  15101.609010 -16223.632568  14626.404436      2.133748                    
V 24  -2869.870385  18478.986282  23479.420839     -0.006689                    
P 25  10901.184219 -15804.930492 -18354.946712     57.265411                    
V 25  22835.679293  -4507.107606  17548.961236      0.022633                    
P 26  20037.416024   9771.729966  14076.205443   -170.130292                    
V 26  10567.693771  15612.127844 -24446.668077      0.135684                    
P 28   7598.132132  13581.572124  22126.198023    215.230248                    
V 28 -26093.719820   5353.258864   5627.819923      0.034993                    
P 29   1691.467265 -18196.357468 -19236.163910    388.849825                    
V 29  17180.157575  17526.534254 -14990.832403      0.039365                    
P 30 -20428.083219  -4893.121490 -16592.035535   -280.174069                    
V 30  18606.333922  -8582.116594 -20842.344576      0.119482                    
P 31 -10211.492710 -13237.418830 -20380.245687    292.993263                    
V 31   8663.872634 -24878.763311  11962.365338      0.020087                    
P 32 -25221.753545   6503.951283  -3357.694965   -518.130573                    
V 32  -5040.249974  -2806.395558  31462.299911     -0.034663                    
EOF
